{
"type": "FeatureCollection",
"name": "na-isc-multipolygon",
"crs": { "type": "name", "properties": { "name": "urn:ogc:def:crs:OGC:1.3:CRS84" } },
"features": [
{ "type": "Feature", "properties": { "id": 0 }, "geometry": { "type": "MultiPolygon", "coordinates": [ [ [ [ 13.95391950000004, 40.741968 ], [ 13.95550650000007, 40.739009500000066 ], [ 13.957085179000046, 40.733746411000027 ], [ 13.960276500000077, 40.723107 ], [ 13.961533583000062, 40.72219345600007 ], [ 13.964700500000049, 40.719892 ], [ 13.965268500000036, 40.712493500000051 ], [ 13.954163, 40.707431500000041 ], [ 13.939215, 40.713941 ], [ 13.935443, 40.724007 ], [ 13.932804, 40.734795 ], [ 13.927331500000037, 40.739571 ], [ 13.931346500000075, 40.746145500000068 ], [ 13.935672733000047, 40.746302178000064 ], [ 13.941066, 40.746497500000032 ], [ 13.95391950000004, 40.741968 ] ] ], [ [ [ 14.248876, 40.910609 ], [ 14.250843, 40.908316 ], [ 14.269275, 40.902208 ], [ 14.270719, 40.891570500000057 ], [ 14.278373, 40.890446500000053 ], [ 14.284265, 40.898289500000033 ], [ 14.293260500000031, 40.893759500000044 ], [ 14.310594500000036, 40.881752500000061 ], [ 14.323502, 40.878518 ], [ 14.325738500000057, 40.88028550000007 ], [ 14.346801500000026, 40.866781500000059 ], [ 14.353738, 40.857504500000061 ], [ 14.346946, 40.855642 ], [ 14.347551500000066, 40.848902999000074 ], [ 14.349408500000038, 40.848037500000032 ], [ 14.347061, 40.84723450000007 ], [ 14.339155, 40.845423500000038 ], [ 14.315590500000042, 40.827643999000031 ], [ 14.32317050000006, 40.823077500000068 ], [ 14.320049500000041, 40.821462500000052 ], [ 14.292278500000066, 40.837750500000027 ], [ 14.274676, 40.844417500000077 ], [ 14.264507, 40.844609500000047 ], [ 14.251819500000067, 40.836154500000077 ], [ 14.252866, 40.83536550000008 ], [ 14.242986500000029, 40.831317 ], [ 14.22571350000004, 40.830576500000063 ], [ 14.20564, 40.808621500000072 ], [ 14.207633, 40.801010500000075 ], [ 14.186262500000055, 40.792336500000033 ], [ 14.174222, 40.799098 ], [ 14.169362, 40.806034500000067 ], [ 14.159217, 40.816842500000064 ], [ 14.153429, 40.838237 ], [ 14.158869500000037, 40.840401500000041 ], [ 14.160613500000068, 40.846134 ], [ 14.154368500000032, 40.851928 ], [ 14.138517500000034, 40.848656 ], [ 14.132333, 40.855479 ], [ 14.137238500000024, 40.855667 ], [ 14.140664, 40.86693450000007 ], [ 14.155701500000077, 40.867603001000077 ], [ 14.176559500000053, 40.874472500000032 ], [ 14.20262, 40.885532 ], [ 14.20437, 40.897465500000067 ], [ 14.22324750000007, 40.89897250100006 ], [ 14.225965, 40.909219 ], [ 14.237841, 40.905086500000039 ], [ 14.240713500000027, 40.907681 ], [ 14.237218, 40.907504 ], [ 14.237718, 40.912371 ], [ 14.24281650000006, 40.913187500000056 ], [ 14.25112450000006, 40.914918 ], [ 14.248876, 40.910609 ] ] ] ] } }
]
}
