{
"type": "FeatureCollection",
"name": "nuts4_sa_napoli",
"crs": { "type": "name", "properties": { "name": "urn:ogc:def:crs:OGC:1.3:CRS84" } },
"features": [
{ "type": "Feature", "properties": { "nuts_name": "Procida_alta_ris" }, "geometry": { "type": "MultiPolygon", "coordinates": [ [ [ [ 14.017074240030343, 40.769837774518642 ], [ 14.017169437910427, 40.769775100674813 ], [ 14.017280811431419, 40.769741371138856 ], [ 14.017308246001708, 40.769643001439512 ], [ 14.01739535047132, 40.76963190290968 ], [ 14.017639333126819, 40.76949899854349 ], [ 14.017794754865708, 40.769353082553451 ], [ 14.017859806061468, 40.769316815949978 ], [ 14.017973180093181, 40.769287109547967 ], [ 14.018088383178693, 40.769134685711819 ], [ 14.018089095351671, 40.769085607193148 ], [ 14.018138678240796, 40.76900627935624 ], [ 14.018169800599889, 40.768966199431304 ], [ 14.018212617280787, 40.768914861304232 ], [ 14.018233864546884, 40.768873388659514 ], [ 14.018286995448944, 40.768812546033423 ], [ 14.01828755664982, 40.768755987685971 ], [ 14.01827058110463, 40.768732222017825 ], [ 14.018330502114825, 40.768578409421309 ], [ 14.018419775676845, 40.768542361406922 ], [ 14.018485753953826, 40.768444763616301 ], [ 14.018506902734719, 40.768303261826738 ], [ 14.018544908311373, 40.76826118545565 ], [ 14.018529672815177, 40.768199711131302 ], [ 14.018677225673169, 40.767980713529028 ], [ 14.018859609785942, 40.767837713626513 ], [ 14.01892845412873, 40.767690665862212 ], [ 14.018963747708082, 40.767540565669499 ], [ 14.019138998629263, 40.767361864165125 ], [ 14.01954338533651, 40.76711012925783 ], [ 14.019824415239075, 40.766989840349744 ], [ 14.02000981977597, 40.766945742744177 ], [ 14.020287902609136, 40.766884087769107 ], [ 14.020450749843679, 40.766795964760199 ], [ 14.020513719425281, 40.766698682556729 ], [ 14.020583790505688, 40.766587573637061 ], [ 14.021069244029185, 40.766449364756916 ], [ 14.021548868814758, 40.766329666304586 ], [ 14.021675995107399, 40.766310346069872 ], [ 14.021935628874107, 40.766249509091551 ], [ 14.022307592632156, 40.766206268526773 ], [ 14.022706849527157, 40.766220359464192 ], [ 14.023085776689042, 40.766239835182631 ], [ 14.023470455692667, 40.766227547310706 ], [ 14.023945344866123, 40.766175310637337 ], [ 14.024071381369676, 40.766187823040525 ], [ 14.024173520128382, 40.766198300968554 ], [ 14.02427745750191, 40.766260531588976 ], [ 14.024464940191596, 40.766557789855334 ], [ 14.024633064231828, 40.766766648426156 ], [ 14.025305372210916, 40.767680397008284 ], [ 14.026051653004577, 40.768502718703061 ], [ 14.026369729412096, 40.768818316954921 ], [ 14.026481565154189, 40.768892887391097 ], [ 14.027106606010948, 40.769180398603204 ], [ 14.027691385683609, 40.769461423065174 ], [ 14.028100438256926, 40.769624405045434 ], [ 14.028365110937372, 40.769730926749773 ], [ 14.028429102572035, 40.769768290445953 ], [ 14.028528118988881, 40.769615736127584 ], [ 14.027966539139284, 40.769402386598337 ], [ 14.027301539628843, 40.769090016464475 ], [ 14.027326885338068, 40.769010468459356 ], [ 14.027142084951077, 40.768959812400901 ], [ 14.02703670121765, 40.768995742407327 ], [ 14.026892398606128, 40.768933175784206 ], [ 14.026652209152347, 40.768808432500187 ], [ 14.026468042090322, 40.768714838874303 ], [ 14.025920805908781, 40.768072128360188 ], [ 14.02553213007544, 40.767620951977541 ], [ 14.025199551914049, 40.76719479845692 ], [ 14.024821703497876, 40.766553502739789 ], [ 14.025032862891392, 40.766457122181521 ], [ 14.024939575969974, 40.766217045111993 ], [ 14.025077393656142, 40.766169115799038 ], [ 14.02517876275861, 40.766409266684988 ], [ 14.025592244368166, 40.766265495944211 ], [ 14.025474594644665, 40.7660374915503 ], [ 14.025524993091471, 40.766011817356983 ], [ 14.025623730862282, 40.765966995397861 ], [ 14.025768524497902, 40.76620827411918 ], [ 14.026816607773721, 40.765834073167582 ], [ 14.027584000165925, 40.765760784211558 ], [ 14.028149142217458, 40.765728723874581 ], [ 14.028326398509872, 40.765742498392811 ], [ 14.028778882157294, 40.765691089941789 ], [ 14.029109924016225, 40.765669325521934 ], [ 14.02943784232717, 40.765862290052617 ], [ 14.030050738088576, 40.765873585192651 ], [ 14.030104978008493, 40.766027428957841 ], [ 14.030032406863214, 40.766229095352443 ], [ 14.029946471715343, 40.76638808846328 ], [ 14.029846735699602, 40.766589725402447 ], [ 14.029722708190251, 40.766797290965876 ], [ 14.029409964918591, 40.767224156172325 ], [ 14.029270431840448, 40.767388642746873 ], [ 14.028851570625267, 40.767900498955839 ], [ 14.02880254633981, 40.767943039323093 ], [ 14.028681310665954, 40.767960415697935 ], [ 14.028575203639241, 40.768045425144443 ], [ 14.028662753439765, 40.768125921653741 ], [ 14.028779541975043, 40.768170051474598 ], [ 14.028870949064693, 40.76823197889221 ], [ 14.029017296616566, 40.76815345018364 ], [ 14.02907127577101, 40.768103280682958 ], [ 14.029117553561411, 40.768020236498181 ], [ 14.029286391672731, 40.767805771692139 ], [ 14.029584638226662, 40.767415810716052 ], [ 14.029634459963372, 40.767318064566837 ], [ 14.029788650182031, 40.767351673583043 ], [ 14.030038346512912, 40.767453293479008 ], [ 14.030573518544392, 40.767645015505039 ], [ 14.031046737952112, 40.767833043087087 ], [ 14.031994239558788, 40.768135512626174 ], [ 14.032435823265491, 40.76828033211153 ], [ 14.03255883640268, 40.76833742550324 ], [ 14.032692676436255, 40.768368379194854 ], [ 14.032775566905059, 40.768215692694291 ], [ 14.032752774005267, 40.768117322429191 ], [ 14.032438655644389, 40.768084018114862 ], [ 14.032021200332565, 40.767945537490277 ], [ 14.031684293016403, 40.767813861372851 ], [ 14.030721127953377, 40.767480597577965 ], [ 14.030159374135108, 40.767279528071739 ], [ 14.029726305323853, 40.767104105583719 ], [ 14.029849628394, 40.766945601033001 ], [ 14.030072660831832, 40.766585476681449 ], [ 14.030123376203939, 40.766426381203487 ], [ 14.030225900087842, 40.766184628761934 ], [ 14.030248421244286, 40.766012586625855 ], [ 14.030229498010724, 40.765902447499258 ], [ 14.030384393442317, 40.765745548272236 ], [ 14.030521538712312, 40.765581993992264 ], [ 14.03067006142401, 40.765443148461905 ], [ 14.030791408859081, 40.765419627498893 ], [ 14.031130340818795, 40.765410217236003 ], [ 14.031477142353255, 40.765413128079253 ], [ 14.032088442497042, 40.765534820578736 ], [ 14.03209464913895, 40.765663715792499 ], [ 14.032417000099965, 40.765684839750598 ], [ 14.032610646712699, 40.765680319879969 ], [ 14.032795374944715, 40.765737092699936 ], [ 14.03314952975772, 40.765789150125677 ], [ 14.033471717513549, 40.765822522954352 ], [ 14.033478723409599, 40.765896213431503 ], [ 14.033467907447232, 40.766086312997636 ], [ 14.033456200827802, 40.766337776851373 ], [ 14.033380038109943, 40.766582565936417 ], [ 14.033321438827777, 40.766729322489219 ], [ 14.033190091331852, 40.766887738556534 ], [ 14.03302637731065, 40.767052034503791 ], [ 14.033097182026356, 40.767175338348459 ], [ 14.03302431735252, 40.767193146850992 ], [ 14.03291929460342, 40.767204523842999 ], [ 14.032854507681531, 40.767222384209511 ], [ 14.032789154257634, 40.767225021028068 ], [ 14.032650686932788, 40.767312112572263 ], [ 14.032690954587624, 40.767374409033351 ], [ 14.032770822654932, 40.767430291373714 ], [ 14.032859711999706, 40.767418771782474 ], [ 14.032916274881101, 40.767413108756635 ], [ 14.033061982479527, 40.76737751079358 ], [ 14.033387288346374, 40.767196173986889 ], [ 14.033510039390642, 40.767074493217713 ], [ 14.033585033715035, 40.766909468269958 ], [ 14.033636370684579, 40.766707417428982 ], [ 14.033788577514937, 40.766223986253245 ], [ 14.033851877405649, 40.765864054927562 ], [ 14.033842700478449, 40.765576347887134 ], [ 14.033890818126579, 40.765547230537692 ], [ 14.034132674206369, 40.765496142491457 ], [ 14.034268371062781, 40.765454272378953 ], [ 14.034337369903147, 40.765433165853132 ], [ 14.034438191699028, 40.765370450783401 ], [ 14.034680785193679, 40.765355119932082 ], [ 14.034995968146402, 40.765289206600954 ], [ 14.035255121894028, 40.765217742835411 ], [ 14.035361754245821, 40.765095935135498 ], [ 14.035508435937089, 40.764992860067778 ], [ 14.035961954178028, 40.764867789167297 ], [ 14.036034559437118, 40.764868393276224 ], [ 14.036260739444492, 40.764845756905466 ], [ 14.036567505287596, 40.764829898591266 ], [ 14.036817621830529, 40.764825851247672 ], [ 14.036874601087321, 40.764789522089202 ], [ 14.036948000972217, 40.764734904112466 ], [ 14.037015188585942, 40.764672275642383 ], [ 14.036999837310791, 40.764496062621951 ], [ 14.036989451851845, 40.764430304691132 ], [ 14.036899772161119, 40.764330694424963 ], [ 14.036857841439767, 40.76427398416115 ], [ 14.036850321870526, 40.764237122581157 ], [ 14.036716735728165, 40.763990574567735 ], [ 14.036568565495374, 40.764197952080799 ], [ 14.036479123175052, 40.764246283236353 ], [ 14.036446593209382, 40.764264430472622 ], [ 14.036414156929524, 40.764276415230185 ], [ 14.036313294479077, 40.764278652987251 ], [ 14.03626899509065, 40.764275207099828 ], [ 14.036165023731444, 40.76421298897818 ], [ 14.036036673955808, 40.764162827842171 ], [ 14.035900454819309, 40.764100340253187 ], [ 14.035780980021919, 40.763995026966896 ], [ 14.035670727188624, 40.763810039992315 ], [ 14.035697396975603, 40.763638477255959 ], [ 14.035724272481334, 40.76345462748602 ], [ 14.035759183057761, 40.763270851163568 ], [ 14.035769550563211, 40.763111415284918 ], [ 14.035820084712613, 40.762964589953036 ], [ 14.035839582761445, 40.762731589751397 ], [ 14.035970215803021, 40.762622248476838 ], [ 14.035955596149307, 40.762517823005524 ], [ 14.036085690129527, 40.762445288855716 ], [ 14.036088629563848, 40.762242829838918 ], [ 14.036202588238547, 40.762170156054061 ], [ 14.036348213383622, 40.76214069896691 ], [ 14.036469644931358, 40.762111027152145 ], [ 14.036550629748751, 40.76208716386806 ], [ 14.036599927911611, 40.762026222346435 ], [ 14.036585819690359, 40.761884990026481 ], [ 14.036400937864226, 40.761840492649803 ], [ 14.036409905822667, 40.76177921343556 ], [ 14.036321188102999, 40.761778466336217 ], [ 14.036265610694283, 40.761716657289377 ], [ 14.036203209781037, 40.761568870121245 ], [ 14.03609048992435, 40.761555658739361 ], [ 14.036010178909628, 40.761530444022043 ], [ 14.03591315277148, 40.761548038209746 ], [ 14.035786681968039, 40.761484812406287 ], [ 14.035762927131486, 40.761338174018526 ], [ 14.035562447897826, 40.761256741096595 ], [ 14.035483294125973, 40.761191960953063 ], [ 14.035379601148501, 40.761071150578495 ], [ 14.035260134347373, 40.760965853398922 ], [ 14.035632116441459, 40.760931416972547 ], [ 14.035839687542985, 40.760922964031643 ], [ 14.036215278212778, 40.760865025461634 ], [ 14.036191837197276, 40.76079015628666 ], [ 14.036022790439382, 40.760756508803439 ], [ 14.03595124948624, 40.76076609230072 ], [ 14.035710090327104, 40.760784442035046 ], [ 14.035562308746666, 40.760822234379631 ], [ 14.035314991858483, 40.760801502991612 ], [ 14.035077569059933, 40.760761845166599 ], [ 14.035004989551798, 40.760761240157208 ], [ 14.034614579647412, 40.760635746943635 ], [ 14.034413680255257, 40.760375897735322 ], [ 14.0342974146608, 40.76004972498977 ], [ 14.033920149006054, 40.759923857952863 ], [ 14.033729348906627, 40.759732064239941 ], [ 14.03354606598171, 40.759577135736862 ], [ 14.033459481110798, 40.759429149342481 ], [ 14.033403742257734, 40.759379608620975 ], [ 14.033332127250709, 40.759311509929134 ], [ 14.033301119401589, 40.759225352877351 ], [ 14.033212261301612, 40.759196086447375 ], [ 14.033180947555504, 40.759115495177092 ], [ 14.033140417876302, 40.759021071454789 ], [ 14.033052317098782, 40.758903372067856 ], [ 14.032986990771629, 40.758802693721428 ], [ 14.03293037113291, 40.758748820977829 ], [ 14.032858710213135, 40.758649360372523 ], [ 14.032794138190649, 40.758589138456536 ], [ 14.032689994024953, 40.758539187269939 ], [ 14.032650299394197, 40.758495912507392 ], [ 14.032585248831255, 40.758461694519845 ], [ 14.032552971948043, 40.758445975593141 ], [ 14.03253854559426, 40.758415204861429 ], [ 14.032506648533474, 40.758390399214498 ], [ 14.032354215242025, 40.758333908248474 ], [ 14.03217688670669, 40.75832628321502 ], [ 14.032062811279353, 40.758405080435686 ], [ 14.032086578067986, 40.758679961143649 ], [ 14.032081381158115, 40.758757154541094 ], [ 14.032060006688219, 40.758831124204256 ], [ 14.031993025483054, 40.758969598629903 ], [ 14.031950525187424, 40.759098998799658 ], [ 14.031897580379539, 40.759231988721339 ], [ 14.031849932322356, 40.759314430258279 ], [ 14.031869547131619, 40.759495600644549 ], [ 14.031859072833285, 40.759661160654964 ], [ 14.031832750320271, 40.759808200904061 ], [ 14.031790920221887, 40.759912144108036 ], [ 14.031797476596903, 40.76001651663222 ], [ 14.031820685618456, 40.76008420585196 ], [ 14.031786656239071, 40.760206616333434 ], [ 14.031760656980527, 40.76032911786821 ], [ 14.031742671149225, 40.760457816448316 ], [ 14.03170144995255, 40.760518824239732 ], [ 14.0316207234295, 40.760524270593095 ], [ 14.031242189018602, 40.760484282102226 ], [ 14.031073006604881, 40.760470602898145 ], [ 14.030872186193303, 40.760413698413835 ], [ 14.030742086067537, 40.760486226033947 ], [ 14.030870142610835, 40.760554791201663 ], [ 14.030958508048705, 40.76058008162429 ], [ 14.031175628794681, 40.760624857109121 ], [ 14.031377157610102, 40.760632681840271 ], [ 14.031618848166127, 40.760653112184606 ], [ 14.031640553790355, 40.760825083296517 ], [ 14.031662519637388, 40.760978661528981 ], [ 14.031677226536383, 40.761076961483262 ], [ 14.03168403899163, 40.761162902603864 ], [ 14.031650620954299, 40.761242396467836 ], [ 14.031698043516457, 40.761310282394234 ], [ 14.031645452011515, 40.76147683434322 ], [ 14.03155852968561, 40.761474770688501 ], [ 14.031330298568957, 40.761638508729398 ], [ 14.031128485693561, 40.761649099484544 ], [ 14.030862340553456, 40.761646865138232 ], [ 14.030483004194103, 40.761662079890613 ], [ 14.030120438496942, 40.761634482791301 ], [ 14.030023665725404, 40.761633676732146 ], [ 14.029387862451934, 40.761536295549817 ], [ 14.029073587936239, 40.761515248361725 ], [ 14.028695145548525, 40.761469108010076 ], [ 14.028389116110516, 40.761435863668325 ], [ 14.028228621067875, 40.761379278248448 ], [ 14.028176431362468, 40.761363505946285 ], [ 14.028044124237148, 40.761310243860272 ], [ 14.028001832151434, 40.761266897252909 ], [ 14.027857670039957, 40.761210169616824 ], [ 14.027722119671173, 40.761189094909319 ], [ 14.027583632907438, 40.761151296465165 ], [ 14.027466107044784, 40.761121302277566 ], [ 14.027369785569329, 40.761089811982259 ], [ 14.027281420520511, 40.761064518760662 ], [ 14.027185099445271, 40.761033047197081 ], [ 14.026903617616732, 40.760975438382957 ], [ 14.026697796263901, 40.760756647954196 ], [ 14.026671102545437, 40.760667776927903 ], [ 14.026721322338306, 40.760598061412139 ], [ 14.026682815946742, 40.760568228882065 ], [ 14.026709162139465, 40.760482961537456 ], [ 14.026686474476183, 40.760378461993248 ], [ 14.026672576473372, 40.760224955293154 ], [ 14.0266084712378, 40.760161816624951 ], [ 14.026602781052413, 40.760034172360768 ], [ 14.026427309566243, 40.759897697605844 ], [ 14.026297914324319, 40.759921160958442 ], [ 14.026176763388918, 40.759932405703651 ], [ 14.026063858391751, 40.759931452503373 ], [ 14.025919411959659, 40.759881153354797 ], [ 14.025798426250857, 40.759880128633831 ], [ 14.02575032485036, 40.759861318097137 ], [ 14.025516692389589, 40.759840929549398 ], [ 14.025355945562373, 40.759802770333266 ], [ 14.025154940910104, 40.759758109397751 ], [ 14.025050185025327, 40.759751102944612 ], [ 14.024977892494098, 40.759732077693911 ], [ 14.02491337071862, 40.759731538589982 ], [ 14.024760489987949, 40.759705703071816 ], [ 14.024630834718232, 40.759747558320498 ], [ 14.024692699149567, 40.759929073004209 ], [ 14.02463899326767, 40.759923681438657 ], [ 14.024561426892101, 40.759886557717778 ], [ 14.024444172968426, 40.759825736751637 ], [ 14.024292449066563, 40.759720141301287 ], [ 14.024132861111804, 40.759602217351983 ], [ 14.023812432275859, 40.759452261840877 ], [ 14.023684289255032, 40.759389815679057 ], [ 14.023444043917847, 40.759271206929903 ], [ 14.023204441751639, 40.759109664345054 ], [ 14.023101128436924, 40.759004478457754 ], [ 14.022724053367343, 40.758866303009441 ], [ 14.022325672343978, 40.758531610975304 ], [ 14.022038850775996, 40.758289888934506 ], [ 14.021872276554467, 40.758098271254383 ], [ 14.021402588242882, 40.757677073872635 ], [ 14.020837206890921, 40.757181440446267 ], [ 14.020654860431437, 40.756965139640627 ], [ 14.020512037211297, 40.756804402297959 ], [ 14.020321568062014, 40.756594190407121 ], [ 14.020164866376296, 40.756279944018985 ], [ 14.020055668738351, 40.75602744624949 ], [ 14.019889410778983, 40.755265235449897 ], [ 14.019869632906094, 40.754964417536776 ], [ 14.019867063910903, 40.754590126105484 ], [ 14.01989431788499, 40.75438175715292 ], [ 14.01996189404117, 40.754173713277609 ], [ 14.020059652695348, 40.754107051487182 ], [ 14.020155799328849, 40.7541508194439 ], [ 14.020293809672008, 40.754139488826461 ], [ 14.0204893290674, 40.754229997871583 ], [ 14.020641080617414, 40.754250392825561 ], [ 14.020679527613879, 40.754185931011619 ], [ 14.021028003043487, 40.754072323121896 ], [ 14.021359345713535, 40.754026044190738 ], [ 14.021657804865843, 40.75402244918547 ], [ 14.021864346024623, 40.75402597575227 ], [ 14.022061698488079, 40.753954343646605 ], [ 14.022205519146505, 40.753840016536437 ], [ 14.022315748128927, 40.753839722816714 ], [ 14.022391004145726, 40.753777915014496 ], [ 14.022433585158547, 40.753695018587592 ], [ 14.022403323072908, 40.753588305003639 ], [ 14.022449434950637, 40.753532265020333 ], [ 14.02262229920597, 40.75337166268595 ], [ 14.022670869940347, 40.753220997520323 ], [ 14.022646941480067, 40.753159017947056 ], [ 14.0226422020621, 40.753096199345286 ], [ 14.022738360882871, 40.752997467143196 ], [ 14.022896367958824, 40.752963559816941 ], [ 14.023183312365427, 40.753000565794558 ], [ 14.023360861638576, 40.752803744871997 ], [ 14.023481930784948, 40.752613888301902 ], [ 14.02365757467841, 40.752480174561427 ], [ 14.023787299260947, 40.752375477682925 ], [ 14.023839951009521, 40.752220116015025 ], [ 14.02402806270527, 40.752153381141042 ], [ 14.024322220121885, 40.75199199803339 ], [ 14.024526543558119, 40.751866029384018 ], [ 14.024589443725979, 40.751777745398833 ], [ 14.02462465051568, 40.751695188078976 ], [ 14.024553467227156, 40.751536235717467 ], [ 14.024474313905708, 40.751409141595623 ], [ 14.024546277773496, 40.75134297528227 ], [ 14.024736278220402, 40.751321167119329 ], [ 14.024955133564614, 40.751338627453805 ], [ 14.025042569659258, 40.751330311780436 ], [ 14.025199574627532, 40.751224423446956 ], [ 14.025264426434299, 40.751064029573769 ], [ 14.025288875215946, 40.750936913411259 ], [ 14.025367677799835, 40.750892964004862 ], [ 14.025461438938249, 40.750821345659162 ], [ 14.025509155863364, 40.750630189247033 ], [ 14.02539435478916, 40.750540664128209 ], [ 14.025315591155636, 40.750467563733714 ], [ 14.025164003827443, 40.750312120699817 ], [ 14.024937382390151, 40.750132939509704 ], [ 14.024797217597964, 40.750017949767525 ], [ 14.024653053741757, 40.749949233187309 ], [ 14.024348168388164, 40.749842353399892 ], [ 14.024243522331014, 40.749829202594512 ], [ 14.024146578083759, 40.749840643544211 ], [ 14.023920872675003, 40.749832606471017 ], [ 14.023678252037811, 40.749879630608277 ], [ 14.023459533005191, 40.749945267685781 ], [ 14.023240486481225, 40.750035458574509 ], [ 14.023045792988697, 40.750113560771624 ], [ 14.022760856293072, 40.750295226464281 ], [ 14.022273974430448, 40.750499716654929 ], [ 14.021876240912825, 40.750674279604453 ], [ 14.021722318057323, 40.750722058153585 ], [ 14.021575641145452, 40.750825113442943 ], [ 14.021413921062036, 40.750854424290679 ], [ 14.021113486730275, 40.750992986956199 ], [ 14.020927480932469, 40.751028224573687 ], [ 14.020846313593841, 40.75106434471995 ], [ 14.02062768299152, 40.751123849341035 ], [ 14.020448216221231, 40.75126344241702 ], [ 14.02036621650333, 40.751354787303043 ], [ 14.02012142585752, 40.75154904200371 ], [ 14.019900443526856, 40.751768053954635 ], [ 14.0198183715548, 40.751865523999932 ], [ 14.019783869151675, 40.752018616878139 ], [ 14.01970051307951, 40.752201975042453 ], [ 14.019638897503254, 40.752005115274386 ], [ 14.019663705020299, 40.751962379757529 ], [ 14.019632813405622, 40.751870075002849 ], [ 14.019626183745268, 40.751771844135831 ], [ 14.019719173374961, 40.751612072905438 ], [ 14.019644329312491, 40.751394768565703 ], [ 14.019546623427384, 40.751178442103132 ], [ 14.019419455625723, 40.751021558278957 ], [ 14.019074795353003, 40.750877512495045 ], [ 14.018747149286924, 40.750672243749577 ], [ 14.01828941097995, 40.750539505096476 ], [ 14.017951908873279, 40.750456879070832 ], [ 14.017767712782389, 40.750369412088233 ], [ 14.017575078851971, 40.750306412261068 ], [ 14.017333715140225, 40.750267551300773 ], [ 14.017197183514766, 40.750229561891921 ], [ 14.016947024126777, 40.750239708699752 ], [ 14.016850171026032, 40.75024501713456 ], [ 14.01630926592529, 40.750283359170943 ], [ 14.016196447822839, 40.750276270711481 ], [ 14.016156222235649, 40.750269780754451 ], [ 14.016076313211498, 40.750220012234053 ], [ 14.015955078667204, 40.750119528581926 ], [ 14.01571348712193, 40.75002649996933 ], [ 14.015395524466442, 40.749901305319277 ], [ 14.015194747638208, 40.749844371615389 ], [ 14.014937894203419, 40.749762408869735 ], [ 14.014666171381286, 40.7495944281128 ], [ 14.01444383374276, 40.749359388340615 ], [ 14.014234454769422, 40.749339191905364 ], [ 14.014179167319234, 40.749258956720098 ], [ 14.014180361935432, 40.749179191157047 ], [ 14.014130021242829, 40.749132114720155 ], [ 14.014117754431672, 40.749038112079809 ], [ 14.014008464632553, 40.748903324836043 ], [ 14.013916862664583, 40.748767769822223 ], [ 14.013805030708367, 40.748678103471718 ], [ 14.013639465045197, 40.748671464882598 ], [ 14.013349466198058, 40.748650574072414 ], [ 14.013139994359854, 40.748636516437635 ], [ 14.012826046156034, 40.748597009816905 ], [ 14.012859578864003, 40.748511394685025 ], [ 14.012917664218893, 40.748401457929702 ], [ 14.013048023878447, 40.748310536113991 ], [ 14.01318964372245, 40.748004974221686 ], [ 14.013330353801432, 40.747760743239688 ], [ 14.013474310851771, 40.747558061486409 ], [ 14.013386215301537, 40.747449364751091 ], [ 14.013135252331994, 40.747437781068932 ], [ 14.012631318455266, 40.747279647578367 ], [ 14.012567261022095, 40.747214913923408 ], [ 14.01262958064699, 40.747159610885774 ], [ 14.012800711396007, 40.747038354069709 ], [ 14.012940250738332, 40.746873886304506 ], [ 14.013055576680189, 40.746709219467576 ], [ 14.013228072011835, 40.746495946976388 ], [ 14.013449229853203, 40.746264697172592 ], [ 14.013507953249064, 40.746111805389155 ], [ 14.01342296515476, 40.745859518453784 ], [ 14.013409750985558, 40.745663072600706 ], [ 14.013494099295173, 40.745412223060839 ], [ 14.0135362229672, 40.745304511740898 ], [ 14.013529616948581, 40.745191656705579 ], [ 14.013499790496335, 40.745025733253399 ], [ 14.013541667641521, 40.744921794339696 ], [ 14.013542741359478, 40.74484817442395 ], [ 14.013465284788422, 40.744632768338953 ], [ 14.013555891840081, 40.744504691903025 ], [ 14.013653356559709, 40.744456432762775 ], [ 14.013705913669419, 40.744174645855054 ], [ 14.013821784990034, 40.743973166196291 ], [ 14.014103448404251, 40.7434663276889 ], [ 14.014466173245809, 40.742929497367001 ], [ 14.01474421895103, 40.742668034777054 ], [ 14.015037918922257, 40.742437382120194 ], [ 14.015738447155943, 40.741958647282992 ], [ 14.016130528551344, 40.741618403228735 ], [ 14.016451027200157, 40.741210043921022 ], [ 14.016683647253892, 40.740745735225488 ], [ 14.016766785016861, 40.740574649762678 ], [ 14.017150439140948, 40.740258850418954 ], [ 14.017363747401882, 40.740009109236063 ], [ 14.017423986143701, 40.739751932114771 ], [ 14.017532593896725, 40.739495154404715 ], [ 14.01761811319318, 40.739431998628099 ], [ 14.017412350591931, 40.739283406592975 ], [ 14.017281875440061, 40.739230565489102 ], [ 14.016697629865067, 40.739248761624737 ], [ 14.016494711292722, 40.739339067489965 ], [ 14.01636434831909, 40.739429993078161 ], [ 14.016041412840893, 40.739457910217546 ], [ 14.015628044280483, 40.739601637692509 ], [ 14.015417264376426, 40.739679618022286 ], [ 14.014801809674777, 40.739858421074779 ], [ 14.014511275727157, 40.739874357826629 ], [ 14.014220931533584, 40.739878005677916 ], [ 14.013467960439989, 40.740086321619977 ], [ 14.013135671572334, 40.740200048044173 ], [ 14.012849668837269, 40.740455306695871 ], [ 14.012177868747932, 40.74062747816626 ], [ 14.011907442294326, 40.740919674029882 ], [ 14.011254810001011, 40.741429472547651 ], [ 14.010835913995592, 40.741699159671448 ], [ 14.010603798734792, 40.741828857816856 ], [ 14.010245221007498, 40.742083471142131 ], [ 14.01002344177571, 40.74235766610775 ], [ 14.009810624767702, 40.742570588815894 ], [ 14.009654233481141, 40.742783984665316 ], [ 14.009570329855041, 40.743004147102262 ], [ 14.009536362345555, 40.743120427339207 ], [ 14.009239637212913, 40.74355350890503 ], [ 14.009195855823146, 40.743786289550499 ], [ 14.009107215797094, 40.744325451993241 ], [ 14.009035525111207, 40.74480955323034 ], [ 14.009066037239302, 40.744926401462379 ], [ 14.009103356348446, 40.745129193803024 ], [ 14.009028580477628, 40.745275793370695 ], [ 14.009010288383225, 40.745422901985336 ], [ 14.009072557675536, 40.745521331087787 ], [ 14.00907955579429, 40.745575036060856 ], [ 14.009138720683309, 40.745653500721119 ], [ 14.009210967262343, 40.745708881925893 ], [ 14.009190902409314, 40.745749639700222 ], [ 14.009197875607626, 40.745823312870996 ], [ 14.009188620128471, 40.745903003352581 ], [ 14.009154649722944, 40.746019282719992 ], [ 14.009169220171334, 40.746123714508087 ], [ 14.009112597891146, 40.74613550854793 ], [ 14.009039675737212, 40.746159425540434 ], [ 14.009004371127473, 40.746159043886671 ], [ 14.008903244990631, 40.746122916227272 ], [ 14.008742521646255, 40.746077098797102 ], [ 14.008531424687497, 40.746173464045448 ], [ 14.008425584921861, 40.74624004080372 ], [ 14.008404140560522, 40.746333703776294 ], [ 14.008408240749029, 40.746378553848288 ], [ 14.008359535838135, 40.746343776260062 ], [ 14.008350474132556, 40.746411198152813 ], [ 14.008277164241944, 40.746459653547625 ], [ 14.008294879240008, 40.746514035801631 ], [ 14.008199079647577, 40.746558712063823 ], [ 14.008091471806255, 40.746554396922136 ], [ 14.007965388573346, 40.746609389408434 ], [ 14.007871283200741, 40.746640219902254 ], [ 14.007852274985297, 40.746708846937395 ], [ 14.007743668056552, 40.74674058455048 ], [ 14.007610711943823, 40.746723855477413 ], [ 14.007265571994871, 40.746738866829126 ], [ 14.007099448564539, 40.746665071206849 ], [ 14.007014315278347, 40.746664274825982 ], [ 14.006931306315032, 40.746780418398394 ], [ 14.006873355570809, 40.746895491011607 ], [ 14.006799478596758, 40.747024753435191 ], [ 14.006684425830287, 40.747029757093472 ], [ 14.006479200259509, 40.746977981175043 ], [ 14.006077455369837, 40.746898591465715 ], [ 14.005900567617783, 40.746844143478249 ], [ 14.005809122855698, 40.747027421485889 ], [ 14.006282757597846, 40.747172629594267 ], [ 14.006508338391189, 40.747186846560922 ], [ 14.006604823300306, 40.747206066960253 ], [ 14.006659906237482, 40.747298576778569 ], [ 14.006675125650638, 40.747360073477765 ], [ 14.006737986460642, 40.74743707044491 ], [ 14.006806688616564, 40.747681683277648 ], [ 14.006863066164767, 40.747735949104197 ], [ 14.006976166825396, 40.747908395213294 ], [ 14.007064783198077, 40.748152141746971 ], [ 14.007207994597215, 40.74840156998922 ], [ 14.007270506040006, 40.748537089473629 ], [ 14.007273249865388, 40.748602243024656 ], [ 14.007117568843872, 40.748726065581586 ], [ 14.007015121350575, 40.748879086824516 ], [ 14.006594756669383, 40.748966901412167 ], [ 14.005915954550892, 40.749059224150102 ], [ 14.005735359135231, 40.749045485529571 ], [ 14.005479787489802, 40.749104540870817 ], [ 14.005476621641366, 40.749016963393338 ], [ 14.005466037885844, 40.748944901905091 ], [ 14.005369187128313, 40.748950200504176 ], [ 14.005342614485798, 40.749109509219494 ], [ 14.004980045686901, 40.749087970899062 ], [ 14.00476304826768, 40.749037015286277 ], [ 14.004466997084235, 40.748881075226983 ], [ 14.004053503868302, 40.748341599827228 ], [ 14.004038779000178, 40.747852737370607 ], [ 14.004876450296818, 40.747381381610623 ], [ 14.005476450608901, 40.747705600694971 ], [ 14.005717898715915, 40.747738361744538 ], [ 14.005774886364543, 40.74770204765148 ], [ 14.005799533732883, 40.747671583000397 ], [ 14.005824903335469, 40.747643355830391 ], [ 14.005826626280919, 40.747607252372774 ], [ 14.005711633323186, 40.74755374390373 ], [ 14.005609358200996, 40.747472652831497 ], [ 14.005038988968266, 40.747168830318493 ], [ 14.004923598259259, 40.747061294605466 ], [ 14.005069946586369, 40.746852360685608 ], [ 14.005220382382948, 40.746530696587257 ], [ 14.005172666286038, 40.746445203632398 ], [ 14.005003964416428, 40.746378045485677 ], [ 14.005075445612489, 40.746275901642214 ], [ 14.005099269374792, 40.746189325101199 ], [ 14.004934863468403, 40.746167044569738 ], [ 14.005062531600959, 40.746015364149521 ], [ 14.005010369116597, 40.745971351038264 ], [ 14.004885992459052, 40.745851962003002 ], [ 14.004810430979378, 40.745859192261193 ], [ 14.004828129240295, 40.745692417461719 ], [ 14.004637335374067, 40.745569332097823 ], [ 14.004476438988824, 40.745640182165047 ], [ 14.00441463031785, 40.745624871802633 ], [ 14.004230994858547, 40.745632854194653 ], [ 14.004193591426262, 40.745583902663896 ], [ 14.004178931921116, 40.745485614405524 ], [ 14.004163605018315, 40.745307143536216 ], [ 14.004248485457117, 40.745148750701581 ], [ 14.004204385448334, 40.745062289802391 ], [ 14.004105733762891, 40.745098088487005 ], [ 14.004022395843602, 40.745259273696746 ], [ 14.003976501039338, 40.745180228602983 ], [ 14.003884350830434, 40.745125710026393 ], [ 14.003741890670533, 40.745149915312467 ], [ 14.003602516421191, 40.745204541612225 ], [ 14.003553580795936, 40.745302145586422 ], [ 14.003310962058553, 40.745287909558428 ], [ 14.003136780079002, 40.745387784527004 ], [ 14.002921475579186, 40.745450210654909 ], [ 14.002909151037588, 40.745627280449192 ], [ 14.002795503161037, 40.745798781010329 ], [ 14.002683690153393, 40.745711997295167 ], [ 14.002585038135948, 40.745744900070129 ], [ 14.002539028963076, 40.745733385007348 ], [ 14.002531688823705, 40.745625669570757 ], [ 14.002424018114921, 40.745679873919599 ], [ 14.002440338238905, 40.745808054967469 ], [ 14.002359525385247, 40.745819623711597 ], [ 14.002265666494232, 40.745659742998818 ], [ 14.002251605642195, 40.745561317696193 ], [ 14.002195183029148, 40.745460215043011 ], [ 14.002009605585549, 40.745491420050413 ], [ 14.001839151879976, 40.745556723154039 ], [ 14.001715510553067, 40.745683645456843 ], [ 14.001694227127668, 40.745824117841039 ], [ 14.001577859114773, 40.745860686781207 ], [ 14.001453963831622, 40.746023630419316 ], [ 14.001415206945158, 40.746412739313236 ], [ 14.001286940424126, 40.746499073367048 ], [ 14.001227127647802, 40.746668231908458 ], [ 14.001095951247873, 40.746763970320387 ], [ 14.001058990900152, 40.746882609360775 ], [ 14.00097837386228, 40.74697164954047 ], [ 14.000877916011881, 40.747052534482485 ], [ 14.000806012742718, 40.74715921212087 ], [ 14.000597280560569, 40.747276313334488 ], [ 14.000536556977307, 40.747466589305802 ], [ 14.000180115621538, 40.747573952328104 ], [ 13.999741014131578, 40.747815564501892 ], [ 13.99937697532391, 40.747892167573006 ], [ 13.998350069813421, 40.74807346635977 ], [ 13.997865352801877, 40.748130614566023 ], [ 13.997648359278514, 40.748079646960988 ], [ 13.997483483938243, 40.748041775683092 ], [ 13.997342425343664, 40.748046314255561 ], [ 13.997005515370324, 40.747926811639168 ], [ 13.996595672577431, 40.747831201421675 ], [ 13.996412239612075, 40.747694635753859 ], [ 13.996188581324512, 40.747551574537326 ], [ 13.995971486359975, 40.747396113764282 ], [ 13.995786997394884, 40.747215063103859 ], [ 13.995706632525199, 40.747060990073116 ], [ 13.995462042356296, 40.746878029778451 ], [ 13.995188213386619, 40.746505953810221 ], [ 13.995094410857538, 40.746308797013931 ], [ 13.994947295895063, 40.745902566815893 ], [ 13.994883336216514, 40.745331405606464 ], [ 13.994977467694804, 40.744970229710297 ], [ 13.995021467435558, 40.744725182348063 ], [ 13.995128780959291, 40.744560457431646 ], [ 13.995260746380431, 40.744365267985692 ], [ 13.99547464016023, 40.744084896327401 ], [ 13.995598350073287, 40.743901902607 ], [ 13.995809003875255, 40.743836247280463 ], [ 13.995930596255166, 40.743794349782149 ], [ 13.996036421134079, 40.743727783293274 ], [ 13.996190716991054, 40.743655499185842 ], [ 13.99626486026421, 40.743551845098175 ], [ 13.996419786116624, 40.743436607105693 ], [ 13.996647032336078, 40.743340410400499 ], [ 13.996696426488693, 40.743273362709331 ], [ 13.996825609308019, 40.74326220520755 ], [ 13.997109012773882, 40.743184905031626 ], [ 13.997319367884888, 40.743137642495888 ], [ 13.997319863872654, 40.74300242632421 ], [ 13.997348079771802, 40.742837258569004 ], [ 13.997375037425549, 40.742653430640722 ], [ 13.997190789832159, 40.742572053527596 ], [ 13.997192445412667, 40.742461642224725 ], [ 13.997226727944057, 40.7423269492975 ], [ 13.997268700398839, 40.742216871415195 ], [ 13.997302232333913, 40.742131260603898 ], [ 13.997190568925269, 40.742050531409305 ], [ 13.997223734535545, 40.741989461298878 ], [ 13.99737802496181, 40.741917174099143 ], [ 13.997405542005543, 40.741696536066279 ], [ 13.997389969081587, 40.741659596102338 ], [ 13.997382644359716, 40.741610442226467 ], [ 13.997407561137434, 40.741561566196395 ], [ 13.997415702743709, 40.741499183713252 ], [ 13.997371206687157, 40.741297436790539 ], [ 13.99734986545795, 40.741107038545394 ], [ 13.997391572255054, 40.741015375420673 ], [ 13.997448847940502, 40.740960649717621 ], [ 13.997482645442386, 40.740856642979459 ], [ 13.997542035380755, 40.740660804609341 ], [ 13.997601598400038, 40.740452715667601 ], [ 13.997644496483753, 40.740281304898971 ], [ 13.997711478925604, 40.740116225233919 ], [ 13.997429474475467, 40.740101491981498 ], [ 13.997074281886352, 40.740129097485102 ], [ 13.996549204198754, 40.74019201029261 ], [ 13.996032107219916, 40.740261138874359 ], [ 13.99565306149843, 40.740360214420924 ], [ 13.995068712972364, 40.740516596759107 ], [ 13.994412639342391, 40.740679647693824 ], [ 13.993903180213268, 40.740807072889844 ], [ 13.993433714978796, 40.740925697020444 ], [ 13.993280790766594, 40.740905963606053 ], [ 13.993128524205158, 40.740843273381763 ], [ 13.992996406889377, 40.740894122769362 ], [ 13.992826954442915, 40.740982512648884 ], [ 13.992710256324969, 40.741064094748097 ], [ 13.992559355526657, 40.741157358271757 ], [ 13.992447094238759, 40.741215072839388 ], [ 13.992384156841768, 40.74130332328496 ], [ 13.992237247461723, 40.741413653338704 ], [ 13.992184401929663, 40.741424039930834 ], [ 13.992148350723683, 40.741444097389227 ], [ 13.992058624184875, 40.741569538838348 ], [ 13.99190210163593, 40.741702375554922 ], [ 13.99177903788352, 40.741748223893204 ], [ 13.991735935019975, 40.741795119576807 ], [ 13.991718798153219, 40.741818800975324 ], [ 13.991670058667637, 40.741842912610423 ], [ 13.991619441215589, 40.741899206956504 ], [ 13.991487996900471, 40.741981429002031 ], [ 13.991511869531054, 40.742043418933712 ], [ 13.991504112189819, 40.742097782950673 ], [ 13.991395554696295, 40.742070976139708 ], [ 13.9912270037052, 40.742240346820118 ], [ 13.99100855813955, 40.742395467691431 ], [ 13.990965441826871, 40.742472272624951 ], [ 13.990786932162621, 40.742588045810258 ], [ 13.990698907066655, 40.742607498142803 ], [ 13.990630637162473, 40.742693857591718 ], [ 13.990420009311924, 40.742815540481985 ], [ 13.99036249969916, 40.742917069848986 ], [ 13.990257964263609, 40.742971774291213 ], [ 13.990168071581376, 40.743050755026765 ], [ 13.990420879577195, 40.743396558714437 ], [ 13.990540053398975, 40.743514177176174 ], [ 13.990627349231383, 40.743606977904136 ], [ 13.990723292253, 40.743663041910743 ], [ 13.990802706215854, 40.743743497248893 ], [ 13.990858302840474, 40.743799206022587 ], [ 13.990905477678016, 40.743879362597973 ], [ 13.990929028521773, 40.743922522132593 ], [ 13.990959704358009, 40.744027107525234 ], [ 13.991007612207234, 40.744058201563661 ], [ 13.991007146246996, 40.74408886719737 ], [ 13.990998335886781, 40.74413787469674 ], [ 13.991013635748695, 40.744193227993932 ], [ 13.991091387870553, 40.744384113650412 ], [ 13.991033564506637, 40.744475644991184 ], [ 13.991048008843412, 40.744586206512594 ], [ 13.991030774317363, 40.744659679063979 ], [ 13.991061646221199, 40.744751993063893 ], [ 13.991068769958495, 40.744813399162268 ], [ 13.991091195418447, 40.744930179169017 ], [ 13.99108990117394, 40.745016068957447 ], [ 13.991177201095281, 40.745108869042092 ], [ 13.991200360236039, 40.745176550491394 ], [ 13.991197497103284, 40.745366726348664 ], [ 13.991268764867185, 40.745453252652595 ], [ 13.991303409845168, 40.74550079753844 ], [ 13.991307732169712, 40.745617661872821 ], [ 13.991296652779249, 40.745741869190368 ], [ 13.991335311154764, 40.74585265396054 ], [ 13.991373576061402, 40.745987958971853 ], [ 13.991451529596816, 40.746166573637709 ], [ 13.991538100773639, 40.746308452817331 ], [ 13.991570074861421, 40.746327148051854 ], [ 13.991568485290147, 40.746431435011267 ], [ 13.991656813222464, 40.74645673722511 ], [ 13.991734304066041, 40.746666036069435 ], [ 13.991805206655126, 40.746777081931775 ], [ 13.99186775926812, 40.746906487023288 ], [ 13.991986575456643, 40.747048644138324 ], [ 13.992098433746106, 40.747117107063005 ], [ 13.992154524491152, 40.747142131186429 ], [ 13.992193355741623, 40.747240645280208 ], [ 13.99226499023608, 40.747302629304976 ], [ 13.992360915234464, 40.747358690810849 ], [ 13.992464256071507, 40.747457763878707 ], [ 13.992678825125076, 40.747668234772597 ], [ 13.992733499603865, 40.747785294987153 ], [ 13.992868913704237, 40.747896916923146 ], [ 13.992964667371153, 40.747965247279133 ], [ 13.992946313196798, 40.748112338533488 ], [ 13.9931549277029, 40.748181637920119 ], [ 13.99328200021883, 40.748311599437642 ], [ 13.99344216808899, 40.748386632482031 ], [ 13.993625500559773, 40.748529345954687 ], [ 13.993895581443752, 40.748801666746324 ], [ 13.994135910494171, 40.74890807156789 ], [ 13.994320169411893, 40.748989433975019 ], [ 13.994463843129658, 40.749088858646772 ], [ 13.994664237459324, 40.749170368610663 ], [ 13.994784986560063, 40.749183678054202 ], [ 13.994930778609696, 40.749142004641712 ], [ 13.995075742005888, 40.749155537181878 ], [ 13.995205692061184, 40.749095320093559 ], [ 13.995270741763308, 40.749059067380919 ], [ 13.995376135001386, 40.749023164609078 ], [ 13.995498005918726, 40.748962871892296 ], [ 13.995587241231121, 40.748926843533191 ], [ 13.995707916981306, 40.748946295613003 ], [ 13.995861129421062, 40.748947631329465 ], [ 13.995950024811529, 40.748936139518612 ], [ 13.996030186231508, 40.748967511732445 ], [ 13.996143364944947, 40.748950079717005 ], [ 13.996437060933586, 40.748725614093196 ], [ 13.996719271958666, 40.748728080144105 ], [ 13.997009463226682, 40.748736725786337 ], [ 13.997059690673728, 40.748614453564386 ], [ 13.997174525468205, 40.748486608343619 ], [ 13.997231976704153, 40.748419613112262 ], [ 13.997417432637326, 40.748421225413352 ], [ 13.997578792571371, 40.748416489718622 ], [ 13.997789362417985, 40.748356971038746 ], [ 13.997919379760797, 40.748290606683732 ], [ 13.998097433632527, 40.74824920785597 ], [ 13.998719594046653, 40.748168701449082 ], [ 13.999027201975732, 40.748091620193989 ], [ 13.999278281285122, 40.748020162149594 ], [ 13.999617770154657, 40.74796787629824 ], [ 13.999698024758782, 40.74799312037748 ], [ 13.999875886097477, 40.747963988199416 ], [ 13.999949006630951, 40.747927805526537 ], [ 14.000022032061784, 40.747897767356392 ], [ 14.000086639806044, 40.747892177421832 ], [ 14.000224079275121, 40.747868838402056 ], [ 14.000621112372121, 40.747743429142524 ], [ 14.000847611366197, 40.747696306845249 ], [ 14.001380535692331, 40.747498887043626 ], [ 14.001882160031132, 40.747459079387689 ], [ 14.002012169198332, 40.747475943158719 ], [ 14.002160494721158, 40.747667570978891 ], [ 14.002208664672038, 40.747737521604869 ], [ 14.002233699510191, 40.747763519172793 ], [ 14.002256411681332, 40.747861881875956 ], [ 14.002415474221358, 40.748010505576396 ], [ 14.003007827285165, 40.74879221026913 ], [ 14.003985779595947, 40.750324919184514 ], [ 14.004860194878688, 40.751493763180711 ], [ 14.005193897826885, 40.752053299644452 ], [ 14.005477655112538, 40.752344745866772 ], [ 14.005845648690149, 40.752800047294016 ], [ 14.005921917385104, 40.752978170899659 ], [ 14.006055625010053, 40.753152434467594 ], [ 14.006039480304496, 40.75322019842789 ], [ 14.00591614594617, 40.753378662148435 ], [ 14.006148909901107, 40.753454300762549 ], [ 14.006171823174311, 40.753540391896628 ], [ 14.006065416860004, 40.753643777924502 ], [ 14.006194183410669, 40.753663290999128 ], [ 14.006290848296842, 40.753670261592823 ], [ 14.006347300090651, 40.753675458723386 ], [ 14.006402373872177, 40.753763249314304 ], [ 14.006426204524862, 40.75378800986347 ], [ 14.006576126913872, 40.754010172264984 ], [ 14.006696693542029, 40.754326522198753 ], [ 14.006834402516903, 40.754540050710901 ], [ 14.007000369598934, 40.75476850321585 ], [ 14.00722070653412, 40.755138523699458 ], [ 14.007506624248276, 40.75543549325711 ], [ 14.007662254235209, 40.755817233746548 ], [ 14.007740791851079, 40.755959025303419 ], [ 14.007978925923558, 40.756429796456423 ], [ 14.008084580912616, 40.756584531892564 ], [ 14.008178331836646, 40.756729016891072 ], [ 14.008505461666356, 40.757149761190924 ], [ 14.00858436244417, 40.757267030517525 ], [ 14.008804973580533, 40.757759656520157 ], [ 14.008897188068657, 40.757926224042173 ], [ 14.008998219193391, 40.75818476959396 ], [ 14.009083837837006, 40.7583941241773 ], [ 14.009229646853591, 40.758781067761284 ], [ 14.009452218806313, 40.759172042785465 ], [ 14.009536645814759, 40.75940424125249 ], [ 14.009694653542802, 40.759626471386824 ], [ 14.009352226476153, 40.759713855707432 ], [ 14.009309023172625, 40.759727481717121 ], [ 14.009159162005785, 40.759751999120347 ], [ 14.008973693795115, 40.759805097860124 ], [ 14.008884618120376, 40.75985881632765 ], [ 14.008952715845281, 40.759959073248005 ], [ 14.008946074067046, 40.760067396416382 ], [ 14.008914666965424, 40.760131788565545 ], [ 14.008730441798495, 40.760270353705771 ], [ 14.00849112517213, 40.760284914144954 ], [ 14.00840123425254, 40.760363909098977 ], [ 14.008352102089843, 40.760412568816754 ], [ 14.008470624061621, 40.760466232222413 ], [ 14.008498027273033, 40.760505551308817 ], [ 14.008454941933335, 40.760601962873473 ], [ 14.008303225536974, 40.760988886910674 ], [ 14.008114253598132, 40.761220423633553 ], [ 14.007977236419615, 40.761275488838287 ], [ 14.007779225208054, 40.761437165577846 ], [ 14.00755640545343, 40.761505385962245 ], [ 14.007405864668852, 40.761520932576424 ], [ 14.007236454084808, 40.76149228846144 ], [ 14.007081476125254, 40.761458520868317 ], [ 14.007106863243866, 40.761412387286221 ], [ 14.007089240054745, 40.761296120599155 ], [ 14.007132274202005, 40.761258239162544 ], [ 14.007202303979554, 40.761205663782732 ], [ 14.007143764494034, 40.761194712890401 ], [ 14.006961687870287, 40.761184617334173 ], [ 14.006829576680909, 40.761149853890053 ], [ 14.006613698007126, 40.761172740303657 ], [ 14.006509481564795, 40.761262811761853 ], [ 14.006365439886263, 40.761296089506196 ], [ 14.00626306875548, 40.761332053926814 ], [ 14.00611995295106, 40.761446312047369 ], [ 14.005858101159502, 40.761615261774693 ], [ 14.005597270240614, 40.761847190331387 ], [ 14.005449441442385, 40.761948155390762 ], [ 14.005402926498622, 40.762116739637399 ], [ 14.005334842998153, 40.762205238037211 ], [ 14.005247336227791, 40.762222540093482 ], [ 14.00519145938279, 40.76219795633984 ], [ 14.005125271306159, 40.762223348400433 ], [ 14.004980825723065, 40.762211613549141 ], [ 14.004865209605537, 40.762347207652979 ], [ 14.004800498767016, 40.76237251729637 ], [ 14.004730815043091, 40.762479100087539 ], [ 14.004683156246738, 40.762544179696334 ], [ 14.004577833814352, 40.762580270058208 ], [ 14.004576885399398, 40.762715377753395 ], [ 14.004607277830054, 40.762903130586437 ], [ 14.004508378292718, 40.763073991914169 ], [ 14.004438671297194, 40.763213505966981 ], [ 14.004530172389805, 40.763226105349545 ], [ 14.004734333422482, 40.763400126198107 ], [ 14.004984257324864, 40.76340841879086 ], [ 14.005178651832413, 40.763354864385811 ], [ 14.005357752069857, 40.763245975428262 ], [ 14.005416582333821, 40.763086943252681 ], [ 14.005498591852387, 40.762995625286635 ], [ 14.005636253198803, 40.762960007791534 ], [ 14.005709218231505, 40.762936090828553 ], [ 14.006095791343984, 40.762976219397835 ], [ 14.006208898179775, 40.762964939559097 ], [ 14.006194131182108, 40.762872777903603 ], [ 14.006044675677959, 40.762728077614206 ], [ 14.00610769720144, 40.762718643725648 ], [ 14.006245164918116, 40.76269527692758 ], [ 14.006254785688924, 40.762591064965584 ], [ 14.00630427734942, 40.762517849558016 ], [ 14.006345068160174, 40.762487531687782 ], [ 14.006321956807074, 40.7624137111873 ], [ 14.006314813989983, 40.762352286442329 ], [ 14.006380155104004, 40.762297632155864 ], [ 14.006436792907442, 40.762285857496934 ], [ 14.006517525237117, 40.762280410593966 ], [ 14.006574908704305, 40.762219553124233 ], [ 14.006631529704753, 40.762207761094082 ], [ 14.00670503642568, 40.762147035145773 ], [ 14.006850196773835, 40.762148280034069 ], [ 14.007019480450071, 40.762155888978121 ], [ 14.007165026642099, 40.762132594681809 ], [ 14.007490856482104, 40.762187991783399 ], [ 14.00778000252591, 40.762283467557104 ], [ 14.008147694655944, 40.762429531239192 ], [ 14.008535437736207, 40.762664740334728 ], [ 14.008785824229099, 40.762874432224734 ], [ 14.009030076418375, 40.76309963973187 ], [ 14.009188020929681, 40.763311620868421 ], [ 14.00924091273788, 40.76358737860118 ], [ 14.009216787771388, 40.763634490423883 ], [ 14.009200049164383, 40.7637072406744 ], [ 14.009220057417995, 40.76374688044951 ], [ 14.009331409318332, 40.763800561351459 ], [ 14.009463958311292, 40.763880332058882 ], [ 14.00958077170011, 40.763947270416551 ], [ 14.009636258875306, 40.764025876550647 ], [ 14.009761846128985, 40.764101450810259 ], [ 14.00990862833307, 40.764203096843445 ], [ 14.009965072408345, 40.764362700937497 ], [ 14.009958275959914, 40.76469056636369 ], [ 14.009915860747036, 40.764831332152404 ], [ 14.00987397199941, 40.764935271329911 ], [ 14.009824958118791, 40.764977805064767 ], [ 14.009676797804135, 40.765046004594268 ], [ 14.009507577464781, 40.765165275440907 ], [ 14.009322076559071, 40.765163687194764 ], [ 14.009116153185769, 40.765178457179303 ], [ 14.008894870399615, 40.765141617985201 ], [ 14.008869667972943, 40.765208894094378 ], [ 14.008927012274468, 40.765281222633227 ], [ 14.00884345996535, 40.765343644023552 ], [ 14.008737976978415, 40.765385682151589 ], [ 14.008588250365859, 40.765387346703072 ], [ 14.008384095083523, 40.765315153565702 ], [ 14.008277605097746, 40.765424688573013 ], [ 14.008365511941697, 40.765480659913692 ], [ 14.008550746526215, 40.765500645576367 ], [ 14.008606641196284, 40.765537950627092 ], [ 14.008589783486965, 40.765586884464959 ], [ 14.008499886085906, 40.765665878965457 ], [ 14.00852189674313, 40.765813318229675 ], [ 14.008676384736948, 40.765880704363099 ], [ 14.008899266849124, 40.766054105478744 ], [ 14.009104626522728, 40.766240548532998 ], [ 14.009327288017763, 40.766427142231628 ], [ 14.009515102991497, 40.766626629703602 ], [ 14.009928931254805, 40.766788473981499 ], [ 14.010544586264697, 40.767374166140726 ], [ 14.010489238548802, 40.767597954666243 ], [ 14.010382444608778, 40.767781721746672 ], [ 14.010171218694365, 40.767990959227085 ], [ 14.009988427022103, 40.768622578792616 ], [ 14.009829230105934, 40.768832281973964 ], [ 14.009654440477714, 40.76892312384097 ], [ 14.009513350737242, 40.769080205318197 ], [ 14.009175765575044, 40.76909685272166 ], [ 14.00905078050152, 40.76914731813509 ], [ 14.009069651580793, 40.769191506447527 ], [ 14.009116743817442, 40.769211382572159 ], [ 14.009212715117851, 40.769267427203182 ], [ 14.009289837751139, 40.769294477744346 ], [ 14.00937285648911, 40.769348578416896 ], [ 14.009622347164063, 40.769387523761743 ], [ 14.009742608629756, 40.769437645320629 ], [ 14.010008071118795, 40.769489005622503 ], [ 14.010338401838773, 40.769516372765381 ], [ 14.010582373759879, 40.769383483714648 ], [ 14.010785937744368, 40.769256391212771 ], [ 14.010940298015303, 40.769184083844131 ], [ 14.011159520653971, 40.769087803342686 ], [ 14.011361623313363, 40.769058850545996 ], [ 14.011419367925606, 40.768973454748327 ], [ 14.011460250072094, 40.768936989764534 ], [ 14.011611333402032, 40.768945827892615 ], [ 14.01169195259212, 40.768964830293349 ], [ 14.01176647587873, 40.76895800856358 ], [ 14.01183399680961, 40.768954127893082 ], [ 14.011969170201706, 40.769029282163523 ], [ 14.012110508076528, 40.769068139398733 ], [ 14.012221563152902, 40.769058804743366 ], [ 14.012291257249332, 40.769060269098389 ], [ 14.012418877223128, 40.769082166423637 ], [ 14.012451645184894, 40.769116308827961 ], [ 14.012797830148051, 40.769182273435838 ], [ 14.013092357638678, 40.769306816271637 ], [ 14.013709848144776, 40.769439143354532 ], [ 14.013831309169973, 40.769470380180977 ], [ 14.013891746459594, 40.769476763812847 ], [ 14.013994334782092, 40.769521805570633 ], [ 14.014159026930102, 40.7695956714036 ], [ 14.014349150822573, 40.769672909296041 ], [ 14.014536904453218, 40.769718754950873 ], [ 14.014521773973019, 40.76966538763223 ], [ 14.014595445622318, 40.769675527746955 ], [ 14.014601424370603, 40.769720443291085 ], [ 14.014788384818432, 40.769775322988551 ], [ 14.014865979069658, 40.769803455712228 ], [ 14.014931394494429, 40.76983661622571 ], [ 14.015058545239159, 40.769903099272213 ], [ 14.015309151556863, 40.769977718443386 ], [ 14.015400918420813, 40.769987236187113 ], [ 14.015434423330101, 40.769940748011784 ], [ 14.015526489610075, 40.769996387473697 ], [ 14.015657263795323, 40.769880923079739 ], [ 14.015672047386468, 40.769973080745949 ], [ 14.015703203740207, 40.770046972658534 ], [ 14.015910087009246, 40.770163122777511 ], [ 14.016093154005342, 40.770245183180187 ], [ 14.016253061581997, 40.770373261051731 ], [ 14.01634951303444, 40.770454577600297 ], [ 14.016488246104352, 40.770606094756197 ], [ 14.016577503698693, 40.770674688441218 ], [ 14.016912232222408, 40.770781187278189 ], [ 14.017022707694478, 40.770803385450407 ], [ 14.017144161758303, 40.770801669783964 ], [ 14.017186306281708, 40.770679314676215 ], [ 14.017131906036722, 40.770632065680267 ], [ 14.017073479564166, 40.770495066960024 ], [ 14.017069198842506, 40.77041449121905 ], [ 14.017081156878977, 40.770150751722603 ], [ 14.01703471522077, 40.770010573673751 ], [ 14.017061216250129, 40.769862220354241 ], [ 14.017074240030343, 40.769837774518642 ] ] ] ] } }
]
}
