{
"type": "FeatureCollection",
"name": "sel_products",
"crs": { "type": "name", "properties": { "name": "urn:ogc:def:crs:OGC:1.3:CRS84" } },
"features": [
{ "type": "Feature", "properties": { "index": "248a17ee-f48b-4ea9-9b3b-4019387f1d05", "title": "S2A_MSIL1C_20230427T095031_N0509_R079_T33TVF_20230427T115004", "link": "https://apihub.copernicus.eu/apihub/odata/v1/Products('248a17ee-f48b-4ea9-9b3b-4019387f1d05')/$value", "link_alternative": "https://apihub.copernicus.eu/apihub/odata/v1/Products('248a17ee-f48b-4ea9-9b3b-4019387f1d05')/", "link_icon": "https://apihub.copernicus.eu/apihub/odata/v1/Products('248a17ee-f48b-4ea9-9b3b-4019387f1d05')/Products('Quicklook')/$value", "summary": "Date: 2023-04-27T09:50:31.024Z, Instrument: MSI, Satellite: Sentinel-2, Size: 784.77 MB", "ondemand": "false", "datatakesensingstart": "2023-04-27T09:50:31.024", "generationdate": "2023-04-27T11:50:04", "beginposition": "2023-04-27T09:50:31.024", "endposition": "2023-04-27T09:50:31.024", "ingestiondate": "2023-04-27T14:49:35.611", "orbitnumber": 40974, "relativeorbitnumber": 79, "cloudcoverpercentage": 8.9174654364119608, "sensoroperationalmode": "INS-NOBS", "level1cpdiidentifier": "S2A_OPER_MSI_L1C_TL_2APS_20230427T115004_A040974_T33TVF_N05.09", "tileid": "33TVF", "hv_order_tileid": "TF33V", "format": "SAFE", "processingbaseline": "05.09", "platformname": "Sentinel-2", "filename": "S2A_MSIL1C_20230427T095031_N0509_R079_T33TVF_20230427T115004.SAFE", "instrumentname": "Multi-Spectral Instrument", "instrumentshortname": "MSI", "size": "784.77 MB", "s2datatakeid": "GS2A_20230427T095031_040974_N05.09", "producttype": "S2MSI1C", "platformidentifier": "2015-028A", "orbitdirection": "DESCENDING", "platformserialidentifier": "Sentinel-2A", "processinglevel": "Level-1C", "datastripidentifier": "S2A_OPER_MSI_L1C_DS_2APS_20230427T115004_S20230427T095813_N05.09", "granuleidentifier": "S2A_OPER_MSI_L1C_TL_2APS_20230427T115004_A040974_T33TVF_N05.09", "identifier": "S2A_MSIL1C_20230427T095031_N0509_R079_T33TVF_20230427T115004", "uuid": "248a17ee-f48b-4ea9-9b3b-4019387f1d05" }, "geometry": { "type": "MultiPolygon", "coordinates": [ [ [ [ 13.818379707800878, 40.556706911840905 ], [ 15.115291564528247, 40.562692387225397 ], [ 15.117031634388816, 41.551785116889931 ], [ 13.800550898366621, 41.545588768001792 ], [ 13.818379707800878, 40.556706911840905 ] ] ] ] } }
]
}
